NORAD_CAT_ID,OBJECT_NAME,OBJECT_TYPE,EPOCH,MEAN_MOTION,ECCENTRICITY,INCLINATION,RA_OF_ASC_NODE,ARG_OF_PERICENTER,MEAN_ANOMALY,BSTAR,MEAN_MOTION_DOT,MEAN_MOTION_DDOT,TLE_LINE0,TLE_LINE1,TLE_LINE2,SEMIMAJOR_AXIS,PERIOD,APOGEE,PERIGEE,DECAYED
50831.0,STARLINK-3299,PAYLOAD,2023-03-27 22:28:15,15.08859526,0.0001269,53.2171,327.4098,85.1372,274.9765,0.00086263,0.00013475,0.0,0 STARLINK-3299,1 50831U 22001AE  23086.93629568  .00013475  00000-0  86263-3 0  9997,2 50831  53.2171 327.4098 0001269  85.1372 274.9765 15.08859526 67704,6917.821,95.436,540.564,538.808,0.0
50831.0,STARLINK-3299,PAYLOAD,2023-03-28 01:39:01,15.0886508,0.0001246,53.2169,326.8145,84.2811,275.8323,0.00085979,0.00013431,0.0,0 STARLINK-3299,1 50831U 22001AE  23087.06877204  .00013431  00000-0  85979-3 0  9999,2 50831  53.2169 326.8145 0001246  84.2811 275.8323 15.08865080 67724,6917.804,95.436,540.531,538.807,0.0
50831.0,STARLINK-3299,PAYLOAD,2023-03-28 22:19:02,15.08850976,0.0001141,53.2167,322.9478,98.4623,261.6499,7.2314e-05,8.64e-06,0.0,0 STARLINK-3299,1 50831U 22001AE  23087.92988900  .00000864  00000-0  72314-4 0  9996,2 50831  53.2167 322.9478 0001141  98.4623 261.6499 15.08850976 69121,6917.847,95.437,540.501,538.923,0.0
50831.0,STARLINK-3299,PAYLOAD,2023-03-29 22:09:49,15.08845762,0.0001087,53.2156,318.49,88.5062,271.6055,1.7931e-05,-2e-08,0.0,0 STARLINK-3299,1 50831U 22001AE  23088.92348919 -.00000002  00000-0  17931-4 0  9996,2 50831  53.2156 318.4900 0001087  88.5062 271.6055 15.08845762 69277,6917.863,95.437,540.48,538.976,0.0
50831.0,STARLINK-3299,PAYLOAD,2023-03-30 18:49:50,15.08841701,0.0001223,53.2165,314.624,99.7764,260.3366,0.00019116,2.756e-05,0.0,0 STARLINK-3299,1 50831U 22001AE  23089.78461315  .00002756  00000-0  19116-3 0  9990,2 50831  53.2165 314.6240 0001223  99.7764 260.3366 15.08841701 69401,6917.875,95.437,540.586,538.894,0.0
50831.0,STARLINK-3299,PAYLOAD,2023-03-30 23:35:59,15.08854695,0.0001461,53.2177,313.7321,102.026,258.0896,0.00054205,8.353e-05,0.0,0 STARLINK-3299,1 50831U 22001AE  23089.98333071  .00008353  00000-0  54205-3 0  9996,2 50831  53.2177 313.7321 0001461 102.0260 258.0896 15.08854695 69438,6917.835,95.437,540.711,538.69,0.0
50831.0,STARLINK-3299,PAYLOAD,2023-03-31 13:54:28,15.08847977,0.000192,53.2197,311.059,104.9341,255.1864,0.000307,4.602e-05,0.0,0 STARLINK-3299,1 50831U 22001AE  23090.57949206  .00004602  00000-0  30700-3 0  9993,2 50831  53.2197 311.0590 0001920 104.9341 255.1864 15.08847977 69528,6917.856,95.437,541.049,538.393,0.0
50831.0,STARLINK-3299,PAYLOAD,2023-04-01 13:45:15,15.0883686,0.0002027,53.2171,306.5955,80.8101,279.3121,0.00053571,8.247e-05,0.0,0 STARLINK-3299,1 50831U 22001AE  23091.57309939  .00008247  00000-0  53571-3 0  9997,2 50831  53.2171 306.5955 0002027  80.8101 279.3121 15.08836860 69678,6917.89,95.438,541.157,538.353,0.0
50831.0,STARLINK-3299,PAYLOAD,2023-04-01 20:06:48,15.08833137,0.000123,53.2162,305.4042,89.0377,271.0756,0.00058764,9.075e-05,0.0,0 STARLINK-3299,1 50831U 22001AE  23091.83806110  .00009075  00000-0  58764-3 0  9998,2 50831  53.2162 305.4042 0001230  89.0377 271.0756 15.08833137 68445,6917.901,95.438,540.617,538.915,0.0
50831.0,STARLINK-3299,PAYLOAD,2023-04-02 13:36:02,15.08847262,0.0001163,53.2152,302.1328,118.2499,241.8611,0.00083781,0.00013074,0.0,0 STARLINK-3299,1 50831U 22001AE  23092.56670019  .00013074  00000-0  83781-3 0  9997,2 50831  53.2152 302.1328 0001163 118.2499 241.8611 15.08847262 68551,6917.858,95.437,540.528,538.919,0.0
50831.0,STARLINK-3299,PAYLOAD,2023-04-02 21:32:58,15.08857905,0.0001199,53.2156,300.6467,82.8619,277.2509,0.00088312,0.00013802,0.0,0 STARLINK-3299,1 50831U 22001AE  23092.89789832  .00013802  00000-0  88312-3 0  9991,2 50831  53.2156 300.6467 0001199  82.8619 277.2509 15.08857905 68601,6917.826,95.436,540.52,538.861,0.0
50831.0,STARLINK-3299,PAYLOAD,2023-04-03 00:43:44,15.08865725,0.0001173,53.2153,300.0515,80.7703,279.3422,0.0010478,0.00016439,0.0,0 STARLINK-3299,1 50831U 22001AE  23093.03037580  .00016439  00000-0  10478-2 0  9990,2 50831  53.2153 300.0515 0001173  80.7703 279.3422 15.08865725 69897,6917.802,95.436,540.478,538.855,0.0
50831.0,STARLINK-3299,PAYLOAD,2023-04-03 13:26:49,15.08843456,0.0001133,53.2161,297.6727,86.0348,274.0774,0.00012779,1.747e-05,0.0,0 STARLINK-3299,1 50831U 22001AE  23093.56029872  .00001747  00000-0  12779-3 0  9996,2 50831  53.2161 297.6727 0001133  86.0348 274.0774 15.08843456 69970,6917.87,95.437,540.519,538.951,0.0
50831.0,STARLINK-3299,PAYLOAD,2023-04-03 19:48:22,15.08851471,0.0001068,53.2155,296.4835,85.9404,274.171,0.00052007,8.001e-05,0.0,0 STARLINK-3299,1 50831U 22001AE  23093.82525709  .00008001  00000-0  52007-3 0  9993,2 50831  53.2155 296.4835 0001068  85.9404 274.1710 15.08851471 68749,6917.845,95.437,540.449,538.972,0.0
50831.0,STARLINK-3299,PAYLOAD,2023-04-04 00:34:31,15.08856756,0.0001087,53.2154,295.5912,86.7905,273.3211,0.00082222,0.00012828,0.0,0 STARLINK-3299,1 50831U 22001AE  23094.02397587  .00012828  00000-0  82222-3 0  9991,2 50831  53.2154 295.5912 0001087  86.7905 273.3211 15.08856756 70044,6917.829,95.436,540.446,538.942,0.0
50831.0,STARLINK-3299,PAYLOAD,2023-04-04 16:28:23,15.08848043,0.0001048,53.2152,292.6169,97.0105,263.1006,0.00089199,0.0001394,0.0,0 STARLINK-3299,1 50831U 22001AE  23094.68637815  .00013940  00000-0  89199-3 0  9990,2 50831  53.2152 292.6169 0001048  97.0105 263.1006 15.08848043 70148,6917.856,95.437,540.446,538.996,0.0
50831.0,STARLINK-3299,PAYLOAD,2023-04-05 17:54:32,15.0886287,0.000123,53.2161,287.8593,87.1245,272.9888,0.00066892,0.00010381,0.0,0 STARLINK-3299,1 50831U 22001AE  23095.74620932  .00010381  00000-0  66892-3 0  9991,2 50831  53.2161 287.8593 0001230  87.1245 272.9888 15.08862870 70301,6917.81,95.436,540.526,538.825,0.0
50831.0,STARLINK-3299,PAYLOAD,2023-04-06 12:59:10,15.08830882,0.0001209,53.2156,284.2872,105.2483,254.8642,-0.00032124,-5.395e-05,0.0,0 STARLINK-3299,1 50831U 22001AE  23096.54109149 -.00005395  00000-0 -32124-3 0  9994,2 50831  53.2156 284.2872 0001209 105.2483 254.8642 15.08830882 70426,6917.908,95.438,540.61,538.937,0.0
50831.0,STARLINK-3299,PAYLOAD,2023-04-06 19:20:43,15.08835335,0.0001754,53.2177,283.1014,112.1576,247.9602,1.1928e-06,-2.69e-06,0.0,0 STARLINK-3299,1 50831U 22001AE  23096.80605403 -.00000269  00000-0  11928-5 0  9992,2 50831  53.2177 283.1014 0001754 112.1576 247.9602 15.08835335 69199,6917.895,95.438,540.973,538.546,0.0
50831.0,STARLINK-3299,PAYLOAD,2023-04-07 12:49:58,15.08832448,0.0001448,53.2163,279.8291,106.8674,253.2477,0.00033398,5.03e-05,0.0,0 STARLINK-3299,1 50831U 22001AE  23097.53470103  .00005030  00000-0  33398-3 0  9993,2 50831  53.2163 279.8291 0001448 106.8674 253.2477 15.08832448 69307,6917.903,95.438,540.77,538.767,0.0
50831.0,STARLINK-3299,PAYLOAD,2023-04-08 11:05:22,15.08842042,0.0001357,53.2168,275.6664,100.0888,260.0257,0.00033514,5.05e-05,0.0,0 STARLINK-3299,1 50831U 22001AE  23098.46206181  .00005050  00000-0  33514-3 0  9991,2 50831  53.2168 275.6664 0001357 100.0888 260.0257 15.08842042 69440,6917.874,95.437,540.678,538.8,0.0
50831.0,STARLINK-3299,PAYLOAD,2023-04-08 20:37:41,15.0884108,0.0001314,53.2177,273.8825,98.6331,261.481,0.00022424,3.283e-05,0.0,0 STARLINK-3299,1 50831U 22001AE  23098.85950244  .00003283  00000-0  22424-3 0  9994,2 50831  53.2177 273.8825 0001314  98.6331 261.4810 15.08841080 70776,6917.877,95.437,540.651,538.833,0.0
50831.0,STARLINK-3299,PAYLOAD,2023-04-09 04:34:36,15.08831238,4.15e-05,53.2176,272.3956,151.27,208.8315,-0.00010823,-2.009e-05,0.0,0 STARLINK-3299,1 50831U 22001AE  23099.19070163 -.00002009  00000-0 -10823-3 0  9992,2 50831  53.2176 272.3956 0000415 151.2700 208.8315 15.08831238 70826,6917.907,95.438,540.059,539.485,0.0
50831.0,STARLINK-3299,PAYLOAD,2023-04-09 17:17:41,15.08840683,0.0001042,53.2158,270.016,94.8047,265.3064,0.00016471,2.335e-05,0.0,0 STARLINK-3299,1 50831U 22001AE  23099.72062417  .00002335  00000-0  16471-3 0  9999,2 50831  53.2158 270.0160 0001042  94.8047 265.3064 15.08840683 69631,6917.878,95.438,540.464,539.022,0.0
50831.0,STARLINK-3299,PAYLOAD,2023-04-10 04:25:23,15.08843287,9.5e-05,53.2151,267.9336,86.1793,273.9308,0.00035273,5.331e-05,0.0,0 STARLINK-3299,1 50831U 22001AE  23100.18430490  .00005331  00000-0  35273-3 0  9992,2 50831  53.2151 267.9336 0000950  86.1793 273.9308 15.08843287 70971,6917.87,95.437,540.393,539.078,0.0
50831.0,STARLINK-3299,PAYLOAD,2023-04-10 10:46:56,15.08844479,0.0001008,53.2144,266.744,84.9049,275.2058,0.00038948,5.917e-05,0.0,0 STARLINK-3299,1 50831U 22001AE  23100.44926549  .00005917  00000-0  38948-3 0  9998,2 50831  53.2144 266.7440 0001008  84.9049 275.2058 15.08844479 69745,6917.867,95.437,540.429,539.034,0.0
50831.0,STARLINK-3299,PAYLOAD,2023-04-10 20:19:15,15.08857962,0.0001001,53.2151,264.96,83.6509,276.4597,0.00085683,0.00013381,0.0,0 STARLINK-3299,1 50831U 22001AE  23100.84670221  .00013381  00000-0  85683-3 0  9997,2 50831  53.2151 264.9600 0001001  83.6509 276.4597 15.08857962 69800,6917.825,95.436,540.383,538.998,0.0
50831.0,STARLINK-3299,PAYLOAD,2023-04-11 04:16:11,15.08841956,0.0001695,53.2156,263.4763,77.3041,282.814,0.00032418,4.875e-05,0.0,0 STARLINK-3299,1 50831U 22001AE  23101.17790619  .00004875  00000-0  32418-3 0  9994,2 50831  53.2156 263.4763 0001695  77.3041 282.8140 15.08841956 71128,6917.874,95.437,540.912,538.567,0.0
50831.0,STARLINK-3299,PAYLOAD,2023-04-11 12:13:07,15.08835645,0.000157,53.2166,261.9888,81.4164,278.7006,3.328e-05,2.42e-06,0.0,0 STARLINK-3299,1 50831U 22001AE  23101.50910921  .00000242  00000-0  33280-4 0  9994,2 50831  53.2166 261.9888 0001570  81.4164 278.7006 15.08835645 71172,6917.894,95.438,540.845,538.673,0.0
50831.0,STARLINK-3299,PAYLOAD,2023-04-11 16:59:16,15.08841135,0.0001223,53.2164,261.096,86.9056,273.2076,0.00015665,2.206e-05,0.0,0 STARLINK-3299,1 50831U 22001AE  23101.70782793  .00002206  00000-0  15665-3 0  9998,2 50831  53.2164 261.0960 0001223  86.9056 273.2076 15.08841135 69936,6917.877,95.437,540.588,538.896,0.0
